NORAD_CAT_ID,OBJECT_NAME,OBJECT_TYPE,EPOCH,MEAN_MOTION,ECCENTRICITY,INCLINATION,RA_OF_ASC_NODE,ARG_OF_PERICENTER,MEAN_ANOMALY,BSTAR,MEAN_MOTION_DOT,MEAN_MOTION_DDOT,TLE_LINE0,TLE_LINE1,TLE_LINE2,SEMIMAJOR_AXIS,PERIOD,APOGEE,PERIGEE,DECAYED
54162.0,STARLINK-5273,PAYLOAD,2022-11-26 04:00:00,15.46108613,0.0001383,53.2174,0.8854,41.1917,291.2414,-0.028442,-0.01280052,0.0,0 STARLINK-5273,1 54162U 22141F   22330.16667824 -.01280052  00000-0 -28442-1 0  9999,2 54162  53.2174   0.8854 0001383  41.1917 291.2414 15.46108613  4603,6806.26,93.137,429.066,427.1830000000001,0.0
54162.0,STARLINK-5273,PAYLOAD,2022-11-26 14:00:01,15.44983155,0.0001771999999999,53.2171,358.9093,40.8034,91.2119,-0.028045,-0.01220115,0.0,0 STARLINK-5273,1 54162U 22141F   22330.58334491 -.01220115  00000-0 -28045-1 0  9999,2 54162  53.2171 358.9093 0001772  40.8034  91.2119 15.44983155  1304,6809.565,93.205,432.636,430.223,0.0
54162.0,STARLINK-5273,PAYLOAD,2022-11-26 22:00:00,15.4410781,0.0001721999999999,53.2173,357.3258,40.2324,146.2738,-0.02828,-0.01196256,0.0,0 STARLINK-5273,1 54162U 22141F   22330.91667824 -.01196256  00000-0 -28280-1 0  9994,2 54162  53.2173 357.3258 0001722  40.2324 146.2738 15.44107810  4715,6812.138000000001,93.258,435.176,432.83,0.0
54162.0,STARLINK-5273,PAYLOAD,2022-11-27 14:00:01,15.42419658,0.000175,53.2171,354.1744,34.7614,257.5983,-0.030887,-0.01230295,0.0,0 STARLINK-5273,1 54162U 22141F   22331.58334491 -.01230295  00000-0 -30887-1 0  9997,2 54162  53.2171 354.1744 0001750  34.7614 257.5983 15.42419658  4823,6817.107,93.36,440.165,437.779,0.0
54162.0,STARLINK-5273,PAYLOAD,2022-11-27 22:00:00,15.41541009,0.0001653,53.2175,352.5982,31.3653,312.3963,-0.031027,-0.01202523,0.0,0 STARLINK-5273,1 54162U 22141F   22331.91667824 -.01202523  00000-0 -31027-1 0  9993,2 54162  53.2175 352.5982 0001653  31.3653 312.3963 15.41541009  1304,6819.698,93.413,442.69,440.435,0.0
54162.0,STARLINK-5273,PAYLOAD,2022-11-28 22:00:01,15.39026604,0.0001825,53.2175,347.8884,21.3651,110.4202,-0.036094,-0.01278579,0.0,0 STARLINK-5273,1 54162U 22141F   22332.91668981 -.01278579  00000-0 -36094-1 0  9992,2 54162  53.2175 347.8884 0001825  21.3651 110.4202 15.39026604  5022,6827.123000000001,93.566,450.234,447.74300000000005,0.0
54162.0,STARLINK-5273,PAYLOAD,2022-11-29 14:00:01,15.3726032,0.0001694,53.2169,344.7598,47.692,177.6266,-0.035939,-0.01208327,0.0,0 STARLINK-5273,1 54162U 22141F   22333.58335648 -.01208327  00000-0 -35939-1 0  9998,2 54162  53.2169 344.7598 0001694  47.6920 177.6266 15.37260320  5126,6832.352,93.673,455.374,453.06,0.0
54162.0,STARLINK-5273,PAYLOAD,2022-11-29 22:00:00,15.36401903,0.000151,53.2174,343.1964,46.0021,224.4631,-0.036884,-0.01206107,0.0,0 STARLINK-5273,1 54162U 22141F   22333.91667824 -.01206107  00000-0 -36884-1 0  9993,2 54162  53.2174 343.1964 0001510  46.0021 224.4631 15.36401903  1300,6834.897,93.725,457.794,455.73,0.0
54162.0,STARLINK-5273,PAYLOAD,2022-11-30 14:00:01,15.34681433,0.0001546,53.2172,340.0788,37.6637,320.1971,-0.038687,-0.01197611,0.0,0 STARLINK-5273,1 54162U 22141F   22334.58335648 -.01197611  00000-0 -38687-1 0  9995,2 54162  53.2172 340.0788 0001546  37.6637 320.1971 15.34681433  5284,6840.004,93.831,462.926,460.811,0.0
54162.0,STARLINK-5273,PAYLOAD,2022-11-30 22:00:00,15.33820736,0.0001523,53.2173,338.5213,39.7167,0.2022,-0.03959,-0.01192752,0.0,0 STARLINK-5273,1 54162U 22141F   22334.91667824 -.01192752  00000-0 -39590-1 0  9991,2 54162  53.2173 338.5213 0001523  39.7167   0.2022 15.33820736  1308,6842.562,93.883,465.47,463.385,0.0
54162.0,STARLINK-5273,PAYLOAD,2022-12-01 14:00:01,15.32107711,0.0001524,53.2172,335.4174,50.5208,70.545,-0.041824,-0.01193333,0.0,0 STARLINK-5273,1 54162U 22141F   22335.58334491 -.01193333  00000-0 -41824-1 0  9995,2 54162  53.2172 335.4174 0001524  50.5208  70.5450 15.32107711  1302,6847.6619999999975,93.988,470.57,468.483,0.0
54162.0,STARLINK-5273,PAYLOAD,2022-12-01 20:00:01,15.31492608,0.000156,53.2173,334.2549,37.5323,22.9493,-0.043962,-0.01244257,0.0,0 STARLINK-5273,1 54162U 22141F   22335.83335648 -.01244257  00000-0 -43962-1 0  9995,2 54162  53.2173 334.2549 0001560  37.5323  22.9493 15.31492608  5470,6849.495,94.026,472.429,470.292,0.0
54162.0,STARLINK-5273,PAYLOAD,2022-12-01 22:00:00,15.31266252,0.0001686999999999,53.2172,333.8674,44.3282,115.7595,-0.043822,-0.01232562,0.0,0 STARLINK-5273,1 54162U 22141F   22335.91667824 -.01232562  00000-0 -43822-1 0  9999,2 54162  53.2172 333.8674 0001687  44.3282 115.7595 15.31266252  1309,6850.17,94.04,473.191,470.88,0.0
54162.0,STARLINK-5273,PAYLOAD,2022-12-02 14:00:01,15.29556222,0.0001696,53.2169,330.7752,47.3526,187.7008,-0.046441,-0.01237903,0.0,0 STARLINK-5273,1 54162U 22141F   22336.58334491 -.01237903  00000-0 -46441-1 0  9998,2 54162  53.2169 330.7752 0001696  47.3526 187.7008 15.29556222  1306,6855.275,94.145,478.30300000000005,475.977,0.0
54162.0,STARLINK-5273,PAYLOAD,2022-12-02 22:00:00,15.28688741,0.000153,53.2173,329.23,47.8416,223.1568,-0.047104,-0.01223517,0.0,0 STARLINK-5273,1 54162U 22141F   22336.91667824 -.01223517  00000-0 -47104-1 0  9997,2 54162  53.2173 329.2300 0001530  47.8416 223.1568 15.28688741  5641,6857.868,94.198,480.782,478.684,0.0
54162.0,STARLINK-5273,PAYLOAD,2022-12-03 14:00:01,15.26973181,0.0001574,53.2169,326.1499,44.4098,295.3774,-0.049588,-0.01222087,0.0,0 STARLINK-5273,1 54162U 22141F   22337.58334491 -.01222087  00000-0 -49588-1 0  9991,2 54162  53.2169 326.1499 0001574  44.4098 295.3774 15.26973181  1300,6863.004,94.304,485.949,483.788,0.0
54162.0,STARLINK-5273,PAYLOAD,2022-12-03 22:00:00,15.26114452,0.0001656,53.2172,324.6111,38.8607,333.7764,-0.050735,-0.01218409,0.0,0 STARLINK-5273,1 54162U 22141F   22337.91667824 -.01218409  00000-0 -50735-1 0  9996,2 54162  53.2172 324.6111 0001656  38.8607 333.7764 15.26114452  5793,6865.578,94.357,488.58,486.306,0.0
54162.0,STARLINK-5273,PAYLOAD,2022-12-04 14:00:01,15.24417119,0.0001863,53.217,321.5431,36.476,38.7606,-0.054514,-0.01241669,0.0,0 STARLINK-5273,1 54162U 22141F   22338.58334491 -.01241669  00000-0 -54514-1 0  9994,2 54162  53.2170 321.5431 0001863  36.4760  38.7606 15.24417119  1300,6870.6730000000025,94.462,493.818,491.258,0.0
54162.0,STARLINK-5273,PAYLOAD,2022-12-04 22:00:00,15.235462,0.0001786,53.2172,320.0101,43.0583,61.9445,-0.054973,-0.01221568,0.0,0 STARLINK-5273,1 54162U 22141F   22338.91667824 -.01221568  00000-0 -54973-1 0  9995,2 54162  53.2172 320.0101 0001786  43.0583  61.9445 15.23546200  5947,6873.291,94.516,496.384,493.929,0.0
54162.0,STARLINK-5273,PAYLOAD,2022-12-05 14:00:01,15.21822972,0.0001803,53.2171,316.9537,43.1096,118.3898,-0.057288,-0.01210329,0.0,0 STARLINK-5273,1 54162U 22141F   22339.58335648 -.01210329  00000-0 -57288-1 0  9990,2 54162  53.2171 316.9537 0001803  43.1096 118.3898 15.21822972  1309,6878.479,94.623,501.584,499.104,0.0
54162.0,STARLINK-5273,PAYLOAD,2022-12-05 22:00:01,15.20963845,0.000176,53.2174,315.4265,47.1123,141.0576,-0.058567,-0.01206646,0.0,0 STARLINK-5273,1 54162U 22141F   22339.91668981 -.01206646  00000-0 -58567-1 0  9994,2 54162  53.2174 315.4265 0001760  47.1123 141.0576 15.20963845  6092,6881.069,94.677,504.145,501.723,0.0
54162.0,STARLINK-5273,PAYLOAD,2022-12-06 14:00:01,15.19274953,0.0001672,53.2172,312.3833,45.88,192.5251,-0.063515,-0.01242133,0.0,0 STARLINK-5273,1 54162U 22141F   22340.58335648 -.01242133  00000-0 -63515-1 0  9990,2 54162  53.2172 312.3833 0001672  45.8800 192.5251 15.19274953  1309,6886.168000000002,94.782,509.184,506.881,0.0
54162.0,STARLINK-5273,PAYLOAD,2022-12-06 22:00:00,15.18417112,0.0001745,53.2173,310.8627,43.3813,218.5393,-0.064924,-0.0123869,0.0,0 STARLINK-5273,1 54162U 22141F   22340.91667824 -.01238690  00000-0 -64924-1 0  9999,2 54162  53.2173 310.8627 0001745  43.3813 218.5393 15.18417112  6252,6888.761,94.836,511.828,509.424,0.0
54162.0,STARLINK-5273,PAYLOAD,2022-12-07 22:00:00,15.15847722,0.000171,53.2175,306.3159,39.5867,286.8907,-0.070086,-0.01241414,0.0,0 STARLINK-5273,1 54162U 22141F   22341.91667824 -.01241414  00000-0 -70086-1 0  9994,2 54162  53.2175 306.3159 0001710  39.5867 286.8907 15.15847722  1303,6896.543000000002,94.996,519.587,517.229,0.0
54162.0,STARLINK-5273,PAYLOAD,2022-12-08 06:00:00,15.14963788,0.0001826,53.2174,304.8054,34.7733,311.1764,-0.06966,-0.0120623,0.0,0 STARLINK-5273,1 54162U 22141F   22342.25001157 -.01206230  00000-0 -69660-1 0  9996,2 54162  53.2174 304.8054 0001826  34.7733 311.1764 15.14963788  6450,6899.225,95.052,522.35,519.831,0.0
54162.0,STARLINK-5273,PAYLOAD,2022-12-08 14:00:01,15.14114482,0.0001725,53.2174,303.2952,39.3651,325.011,-0.072143,-0.0121833,0.0,0 STARLINK-5273,1 54162U 22141F   22342.58334491 -.01218330  00000-0 -72143-1 0  9996,2 54162  53.2174 303.2952 0001725  39.3651 325.0110 15.14114482  1305,6901.805,95.105,524.861,522.48,0.0
54162.0,STARLINK-5273,PAYLOAD,2022-12-08 22:00:01,15.13247101,0.0001665999999999,53.2176,301.7864,39.8829,341.96,-0.072839,-0.01201718,0.0,0 STARLINK-5273,1 54162U 22141F   22342.91668981 -.01201718  00000-0 -72839-1 0  9991,2 54162  53.2176 301.7864 0001666  39.8829 341.9600 15.13247101  1303,6904.441999999999,95.16,527.4580000000002,525.1569999999998,0.0
54162.0,STARLINK-5273,PAYLOAD,2022-12-09 06:00:02,15.12419701,0.0001594,53.2179,300.2835,44.5634,353.6322,-0.077329,-0.01242656,0.0,0 STARLINK-5273,1 54162U 22141F   22343.25002315 -.01242656  00000-0 -77329-1 0  9997,2 54162  53.2179 300.2835 0001594  44.5634 353.6322 15.12419701  6600,6906.96,95.212,529.9259999999998,527.724,0.0
54162.0,STARLINK-5273,PAYLOAD,2022-12-09 14:00:01,15.11534222,0.000164,53.2175,298.778,44.8889,8.5987,-0.07668,-0.01205338,0.0,0 STARLINK-5273,1 54162U 22141F   22343.58334491 -.01205338  00000-0 -76680-1 0  9991,2 54162  53.2175 298.7780 0001640  44.8889   8.5987 15.11534222  1303,6909.656999999997,95.267,532.656,530.389,0.0
